start=new Date('2022-02-02T00:00:00.000Z').valueOf();
sats=[{"SITE":"AFETR","PERIAPSIS":"545.935","SEMIMAJOR_AXIS":"6925.342","MEAN_ANOMALY":"283.1847","OBJECT_NAME":"STARLINK-1119","REF_FRAME":"TEME","ARG_OF_PERICENTER":"76.9347","PERIOD":"95.592","MEAN_MOTION_DDOT":"0.0000000000000","MEAN_MOTION_DOT":"0.00001974","FILE":"3289675","COUNTRY_CODE":"US","DECAY_DATE":null,"TLE_LINE2":"2 44928  53.0520 226.1904 0001837  76.9347 283.1847 15.06402003114249","OBJECT_ID":"2020-001Q","EPHEMERIS_TYPE":"0","CLASSIFICATION_TYPE":"U","OBJECT_TYPE":"PAYLOAD","ECCENTRICITY":"0.00018370","MEAN_ELEMENT_THEORY":"SGP4","REV_AT_EPOCH":"11424","BSTAR":"0.00015140000000","RA_OF_ASC_NODE":"226.1904","GP_ID":"195120906","CENTER_NAME":"EARTH","ELEMENT_SET_NO":"999","APOAPSIS":"548.480","TIME_SYSTEM":"UTC","RCS_SIZE":"LARGE","MEAN_MOTION":"15.06402003","INCLINATION":"53.0520","EPOCH":"2022-02-01T20:27:24.718752","NORAD_CAT_ID":"44928","TLE_LINE1":"1 44928U 20001Q   22032.85236943  .00001974  00000-0  15140-3 0  9994","LAUNCH_DATE":"2020-01-07"},{"DECAY_DATE":null,"TLE_LINE2":"2 44929  53.0530 226.2400 0001841  75.3365 284.7828 15.06403991114233","OBJECT_ID":"2020-001R","ARG_OF_PERICENTER":"75.3365","PERIOD":"95.592","MEAN_MOTION_DDOT":"0.0000000000000","MEAN_MOTION_DOT":"0.00001903","FILE":"3289675","COUNTRY_CODE":"US","MEAN_ELEMENT_THEORY":"SGP4","CLASSIFICATION_TYPE":"U","EPHEMERIS_TYPE":"0","OBJECT_TYPE":"PAYLOAD","ECCENTRICITY":"0.00018410","SITE":"AFETR","PERIAPSIS":"545.926","OBJECT_NAME":"STARLINK-1121","REF_FRAME":"TEME","SEMIMAJOR_AXIS":"6925.336","MEAN_ANOMALY":"284.7828","EPOCH":"2022-02-01T20:06:10.619424","NORAD_CAT_ID":"44929","INCLINATION":"53.0530","TLE_LINE1":"1 44929U 20001R   22032.83762291  .00001903  00000-0  14663-3 0  9994","LAUNCH_DATE":"2020-01-07","REV_AT_EPOCH":"11423","BSTAR":"0.00014663000000","APOAPSIS":"548.476","TIME_SYSTEM":"UTC","MEAN_MOTION":"15.06403991","RCS_SIZE":"LARGE","GP_ID":"195121158","CENTER_NAME":"EARTH","RA_OF_ASC_NODE":"226.2400","ELEMENT_SET_NO":"999"},{"TLE_LINE1":"1 44930U 20001S   22032.80447089  .00004161  00000-0  29803-3 0  9999","LAUNCH_DATE":"2020-01-07","EPOCH":"2022-02-01T19:18:26.284896","NORAD_CAT_ID":"44930","INCLINATION":"53.0515","APOAPSIS":"548.417","TIME_SYSTEM":"UTC","MEAN_MOTION":"15.06403068","RCS_SIZE":"LARGE","GP_ID":"195121900","RA_OF_ASC_NODE":"226.3972","CENTER_NAME":"EARTH","ELEMENT_SET_NO":"999","REV_AT_EPOCH":"11423","BSTAR":"0.00029803000000","MEAN_ELEMENT_THEORY":"SGP4","EPHEMERIS_TYPE":"0","CLASSIFICATION_TYPE":"U","OBJECT_TYPE":"PAYLOAD","ECCENTRICITY":"0.00017510","TLE_LINE2":"2 44930  53.0515 226.3972 0001751  72.7885 287.3296 15.06403068114234","DECAY_DATE":null,"OBJECT_ID":"2020-001S","PERIOD":"95.592","MEAN_MOTION_DOT":"0.00004161","MEAN_MOTION_DDOT":"0.0000000000000","ARG_OF_PERICENTER":"72.7885","COUNTRY_CODE":"US","FILE":"3289675","OBJECT_NAME":"STARLINK-1123","REF_FRAME":"TEME","SEMIMAJOR_AXIS":"6925.339","MEAN_ANOMALY":"287.3296","SITE":"AFETR","PERIAPSIS":"545.992"},{"TIME_SYSTEM":"UTC","APOAPSIS":"538.125","MEAN_MOTION":"15.10042257","RCS_SIZE":"LARGE","RA_OF_ASC_NODE":"224.4343","GP_ID":"195120157","CENTER_NAME":"EARTH","ELEMENT_SET_NO":"999","REV_AT_EPOCH":"11501","BSTAR":"0.00015206000000","TLE_LINE1":"1 44931U 20001T   22032.90409106  .00002210  00000-0  15206-3 0  9994","LAUNCH_DATE":"2020-01-07","EPOCH":"2022-02-01T21:41:53.467584","NORAD_CAT_ID":"44931","INCLINATION":"53.0513","OBJECT_NAME":"STARLINK-1128","REF_FRAME":"TEME","SEMIMAJOR_AXIS":"6914.208","MEAN_ANOMALY":"247.5071","SITE":"AFETR","PERIAPSIS":"534.021","MEAN_ELEMENT_THEORY":"SGP4","EPHEMERIS_TYPE":"0","CLASSIFICATION_TYPE":"U","OBJECT_TYPE":"PAYLOAD","ECCENTRICITY":"0.00029680","TLE_LINE2":"2 44931  53.0513 224.4343 0002968 112.6233 247.5071 15.10042257115016","DECAY_DATE":null,"OBJECT_ID":"2020-001T","MEAN_MOTION_DOT":"0.00002210","PERIOD":"95.362","MEAN_MOTION_DDOT":"0.0000000000000","ARG_OF_PERICENTER":"112.6233","COUNTRY_CODE":"US","FILE":"3289675"},{"RCS_SIZE":"LARGE","MEAN_MOTION":"15.06395512","APOAPSIS":"548.434","TIME_SYSTEM":"UTC","ELEMENT_SET_NO":"999","CENTER_NAME":"EARTH","GP_ID":"195120407","RA_OF_ASC_NODE":"226.4529","BSTAR":"0.00003009000000","REV_AT_EPOCH":"11546","LAUNCH_DATE":"2020-01-07","TLE_LINE1":"1 44932U 20001U   22032.79340100  .00000167  00000-0  30090-4 0  9998","NORAD_CAT_ID":"44932","EPOCH":"2022-02-01T19:02:29.846400","INCLINATION":"53.0531","REF_FRAME":"TEME","OBJECT_NAME":"STARLINK-1130","MEAN_ANOMALY":"289.9781","SEMIMAJOR_AXIS":"6925.362","PERIAPSIS":"546.021","SITE":"AFETR","MEAN_ELEMENT_THEORY":"SGP4","ECCENTRICITY":"0.00017420","OBJECT_TYPE":"PAYLOAD","CLASSIFICATION_TYPE":"U","EPHEMERIS_TYPE":"0","OBJECT_ID":"2020-001U","DECAY_DATE":null,"TLE_LINE2":"2 44932  53.0531 226.4529 0001742  70.1395 289.9781 15.06395512115468","FILE":"3289675","COUNTRY_CODE":"US","ARG_OF_PERICENTER":"70.1395","PERIOD":"95.592","MEAN_MOTION_DDOT":"0.0000000000000","MEAN_MOTION_DOT":"0.00000167"},{"MEAN_ELEMENT_THEORY":"SGP4","OBJECT_TYPE":"PAYLOAD","ECCENTRICITY":"0.00017800","EPHEMERIS_TYPE":"0","CLASSIFICATION_TYPE":"U","OBJECT_ID":"2020-001V","DECAY_DATE":null,"TLE_LINE2":"2 44933  53.0541 226.3364 0001780  82.6491 277.4700 15.06396752115520","FILE":"3289675","COUNTRY_CODE":"US","PERIOD":"95.592","MEAN_MOTION_DDOT":"0.0000000000000","MEAN_MOTION_DOT":"-0.00000319","ARG_OF_PERICENTER":"82.6491","REF_FRAME":"TEME","OBJECT_NAME":"STARLINK-1144","MEAN_ANOMALY":"277.4700","SEMIMAJOR_AXIS":"6925.359","PERIAPSIS":"545.991","SITE":"AFETR","LAUNCH_DATE":"2020-01-07","TLE_LINE1":"1 44933U 20001V   22032.81920041 -.00000319  00000-0 -24888-5 0  9990","NORAD_CAT_ID":"44933","EPOCH":"2022-02-01T19:39:38.915424","INCLINATION":"53.0541","RCS_SIZE":"LARGE","MEAN_MOTION":"15.06396752","APOAPSIS":"548.456","TIME_SYSTEM":"UTC","ELEMENT_SET_NO":"999","CENTER_NAME":"EARTH","GP_ID":"195121658","RA_OF_ASC_NODE":"226.3364","BSTAR":"-0.00000248880000","REV_AT_EPOCH":"11552"},{"PERIAPSIS":"546.050","SITE":"AFETR","MEAN_ANOMALY":"269.9680","SEMIMAJOR_AXIS":"6925.321","REF_FRAME":"TEME","OBJECT_NAME":"STARLINK-1071","FILE":"3289675","COUNTRY_CODE":"US","MEAN_MOTION_DDOT":"0.0000000000000","PERIOD":"95.592","ARG_OF_PERICENTER":"90.1497","MEAN_MOTION_DOT":"0.00003412","OBJECT_ID":"2020-001W","DECAY_DATE":null,"TLE_LINE2":"2 44934  53.0526 205.9772 0001640  90.1497 269.9680 15.06409085114521","ECCENTRICITY":"0.00016400","OBJECT_TYPE":"PAYLOAD","EPHEMERIS_TYPE":"0","CLASSIFICATION_TYPE":"U","MEAN_ELEMENT_THEORY":"SGP4","BSTAR":"0.00024780000000","REV_AT_EPOCH":"11452","ELEMENT_SET_NO":"999","CENTER_NAME":"EARTH","GP_ID":"195121401","RA_OF_ASC_NODE":"205.9772","RCS_SIZE":"LARGE","MEAN_MOTION":"15.06409085","APOAPSIS":"548.321","TIME_SYSTEM":"UTC","INCLINATION":"53.0526","NORAD_CAT_ID":"44934","EPOCH":"2022-02-01T21:33:45.590112","LAUNCH_DATE":"2020-01-07","TLE_LINE1":"1 44934U 20001W   22032.89844433  .00003412  00000-0  24780-3 0  9993"},{"PERIAPSIS":"545.864","SITE":"AFETR","MEAN_ANOMALY":"277.3694","SEMIMAJOR_AXIS":"6925.327","REF_FRAME":"TEME","OBJECT_NAME":"STARLINK-1079","COUNTRY_CODE":"US","FILE":"3289675","MEAN_MOTION_DDOT":"0.0000000000000","PERIOD":"95.592","MEAN_MOTION_DOT":"0.00004163","ARG_OF_PERICENTER":"82.7513","OBJECT_ID":"2020-001Z","TLE_LINE2":"2 44937  53.0523 206.3766 0001918  82.7513 277.3694 15.06406982114513","DECAY_DATE":null,"OBJECT_TYPE":"PAYLOAD","ECCENTRICITY":"0.00019180","CLASSIFICATION_TYPE":"U","EPHEMERIS_TYPE":"0","MEAN_ELEMENT_THEORY":"SGP4","BSTAR":"0.00029814000000","REV_AT_EPOCH":"11451","ELEMENT_SET_NO":"999","GP_ID":"195120657","RA_OF_ASC_NODE":"206.3766","CENTER_NAME":"EARTH","RCS_SIZE":"LARGE","MEAN_MOTION":"15.06406982","TIME_SYSTEM":"UTC","APOAPSIS":"548.520","INCLINATION":"53.0523","NORAD_CAT_ID":"44937","EPOCH":"2022-02-01T19:26:22.812000","LAUNCH_DATE":"2020-01-07","TLE_LINE1":"1 44937U 20001Z   22032.80998625  .00004163  00000-0  29814-3 0  9997"},{"MEAN_ANOMALY":"297.8323","SEMIMAJOR_AXIS":"6925.348","REF_FRAME":"TEME","OBJECT_NAME":"STARLINK-1082","PERIAPSIS":"546.078","SITE":"AFETR","OBJECT_TYPE":"PAYLOAD","ECCENTRICITY":"0.00016390","CLASSIFICATION_TYPE":"U","EPHEMERIS_TYPE":"0","MEAN_ELEMENT_THEORY":"SGP4","FILE":"3289675","COUNTRY_CODE":"US","MEAN_MOTION_DOT":"-0.00000172","PERIOD":"95.592","MEAN_MOTION_DDOT":"0.0000000000000","ARG_OF_PERICENTER":"62.2832","OBJECT_ID":"2020-001AA","DECAY_DATE":null,"TLE_LINE2":"2 44938  53.0537 205.9265 0001639  62.2832 297.8323 15.06400316114527","ELEMENT_SET_NO":"999","RA_OF_ASC_NODE":"205.9265","GP_ID":"195120907","CENTER_NAME":"EARTH","MEAN_MOTION":"15.06400316","RCS_SIZE":"LARGE","APOAPSIS":"548.348","TIME_SYSTEM":"UTC","BSTAR":"0.00000734660000","REV_AT_EPOCH":"11452","LAUNCH_DATE":"2020-01-07","TLE_LINE1":"1 44938U 20001AA  22032.90950093 -.00000172  00000-0  73466-5 0  9997","INCLINATION":"53.0537","NORAD_CAT_ID":"44938","EPOCH":"2022-02-01T21:49:40.880352"},{"MEAN_ELEMENT_THEORY":"SGP4","CLASSIFICATION_TYPE":"U","EPHEMERIS_TYPE":"0","ECCENTRICITY":"0.00019210","OBJECT_TYPE":"PAYLOAD","DECAY_DATE":null,"TLE_LINE2":"2 44939  53.0522 206.1931 0001921  75.5953 284.5249 15.06409161114516","OBJECT_ID":"2020-001AB","MEAN_MOTION_DOT":"0.00002364","PERIOD":"95.592","MEAN_MOTION_DDOT":"0.0000000000000","ARG_OF_PERICENTER":"75.5953","FILE":"3289675","COUNTRY_CODE":"US","OBJECT_NAME":"STARLINK-1083","REF_FRAME":"TEME","SEMIMAJOR_AXIS":"6925.320","MEAN_ANOMALY":"284.5249","SITE":"AFETR","PERIAPSIS":"545.855","TLE_LINE1":"1 44939U 20001AB  22032.85052486  .00002364  00000-0  17751-3 0  9998","LAUNCH_DATE":"2020-01-07","EPOCH":"2022-02-01T20:24:45.347904","NORAD_CAT_ID":"44939","INCLINATION":"53.0522","TIME_SYSTEM":"UTC","APOAPSIS":"548.516","MEAN_MOTION":"15.06409161","RCS_SIZE":"LARGE","CENTER_NAME":"EARTH","GP_ID":"195121159","RA_OF_ASC_NODE":"206.1931","ELEMENT_SET_NO":"999","REV_AT_EPOCH":"11451","BSTAR":"0.00017751000000"}];
